{"type": "FeatureCollection", "features": [ {"type": "Feature", "properties": {"norad_id": 34077, "name": "IRIDIUM 33 DEB", "group": "iridium-33-debris", "lat": 52.612489930027095, "lon": 59.66623163667967, "alt_km": 665.8598741818469, "timestamp": "2025-12-04T23:34:06.106501+00:00", "meta": {"OBJECT_NAME": "IRIDIUM 33 DEB", "OBJECT_ID": "1997-051CL", "EPOCH": "2025-12-04T17:18:42.892128", "MEAN_MOTION": 14.64636283, "ECCENTRICITY": 0.001086, "INCLINATION": 86.3874, "RA_OF_ASC_NODE": 55.0389, "ARG_OF_PERICENTER": 64.6167, "MEAN_ANOMALY": 54.6109, "EPHEMERIS_TYPE": 0, "CLASSIFICATION_TYPE": "U", "NORAD_CAT_ID": 34077, "ELEMENT_SET_NO": 999, "REV_AT_EPOCH": 88215, "BSTAR": 0.0042105, "MEAN_MOTION_DOT": 0.00022464, "MEAN_MOTION_DDOT": 0}, "tle": {"line1": "1 34077U 97051CL  25338.72132977  .00022464  00000+0  42105-2 0  9993", "line2": "2 34077  86.3874  55.0389 0010860  64.6167  54.6109 14.64636283882156"}}, "geometry": {"type": "Point", "coordinates": [59.66623163667967, 52.612489930027095]}}, {"type": "Feature", "properties": {"norad_id": 34079, "name": "IRIDIUM 33 DEB", "group": "iridium-33-debris", "lat": -65.01091845757364, "lon": -159.99807960488974, "alt_km": 630.3020851923611, "timestamp": "2025-12-04T23:34:06.106524+00:00", "meta": {"OBJECT_NAME": "IRIDIUM 33 DEB", "OBJECT_ID": "1997-051CN", "EPOCH": "2025-12-04T14:55:55.555392", "MEAN_MOTION": 14.83206685, "ECCENTRICITY": 0.0006547, "INCLINATION": 86.3776, "RA_OF_ASC_NODE": 12.3535, "ARG_OF_PERICENTER": 33.0784, "MEAN_ANOMALY": 92.0163, "EPHEMERIS_TYPE": 0, "CLASSIFICATION_TYPE": "U", "NORAD_CAT_ID": 34079, "ELEMENT_SET_NO": 999, "REV_AT_EPOCH": 88857, "BSTAR": 0.0036896, "MEAN_MOTION_DOT": 0.00030258, "MEAN_MOTION_DDOT": 0}, "tle": {"line1": "1 34079U 97051CN  25338.62217078  .00030258  00000+0  36896-2 0  9990", "line2": "2 34079  86.3776  12.3535 0006547  33.0784  92.0163 14.83206685888578"}}, "geometry": {"type": "Point", "coordinates": [-159.99807960488974, -65.01091845757364]}}, {"type": "Feature", "properties": {"norad_id": 34088, "name": "IRIDIUM 33 DEB", "group": "iridium-33-debris", "lat": 58.63322742625906, "lon": -151.66478091538258, "alt_km": 589.5131610218659, "timestamp": "2025-12-04T23:34:06.106535+00:00", "meta": {"OBJECT_NAME": "IRIDIUM 33 DEB", "OBJECT_ID": "1997-051CX", "EPOCH": "2025-12-04T13:54:56.791872", "MEAN_MOTION": 14.90765151, "ECCENTRICITY": 0.0005164, "INCLINATION": 86.3855, "RA_OF_ASC_NODE": 34.4716, "ARG_OF_PERICENTER": 207.2916, "MEAN_ANOMALY": 276.8284, "EPHEMERIS_TYPE": 0, "CLASSIFICATION_TYPE": "U", "NORAD_CAT_ID": 34088, "ELEMENT_SET_NO": 999, "REV_AT_EPOCH": 88620, "BSTAR": 0.0061025, "MEAN_MOTION_DOT": 0.00060443, "MEAN_MOTION_DDOT": 0}, "tle": {"line1": "1 34088U 97051CX  25338.57982398  .00060443  00000+0  61025-2 0  9999", "line2": "2 34088  86.3855  34.4716 0005164 207.2916 276.8284 14.90765151886208"}}, "geometry": {"type": "Point", "coordinates": [-151.66478091538258, 58.63322742625906]}}, {"type": "Feature", "properties": {"norad_id": 34091, "name": "IRIDIUM 33 DEB", "group": "iridium-33-debris", "lat": -37.789188651823736, "lon": -106.77230767020997, "alt_km": 638.3006851899299, "timestamp": "2025-12-04T23:34:06.106546+00:00", "meta": {"OBJECT_NAME": "IRIDIUM 33 DEB", "OBJECT_ID": "1997-051DA", "EPOCH": "2025-12-04T12:51:17.264736", "MEAN_MOTION": 14.80833294, "ECCENTRICITY": 0.0032938, "INCLINATION": 86.3424, "RA_OF_ASC_NODE": 70.5888, "ARG_OF_PERICENTER": 322.9542, "MEAN_ANOMALY": 36.9405, "EPHEMERIS_TYPE": 0, "CLASSIFICATION_TYPE": "U", "NORAD_CAT_ID": 34091, "ELEMENT_SET_NO": 999, "REV_AT_EPOCH": 87745, "BSTAR": 0.012051, "MEAN_MOTION_DOT": 0.00095005, "MEAN_MOTION_DDOT": 0}, "tle": {"line1": "1 34091U 97051DA  25338.53561649  .00095005  00000+0  12051-1 0  9997", "line2": "2 34091  86.3424  70.5888 0032938 322.9542  36.9405 14.80833294877454"}}, "geometry": {"type": "Point", "coordinates": [-106.77230767020997, -37.789188651823736]}}, {"type": "Feature", "properties": {"norad_id": 34097, "name": "IRIDIUM 33 DEB", "group": "iridium-33-debris", "lat": -34.10373076883367, "lon": 2.2528662799797323, "alt_km": 753.4693551464343, "timestamp": "2025-12-04T23:34:06.106557+00:00", "meta": {"OBJECT_NAME": "IRIDIUM 33 DEB", "OBJECT_ID": "1997-051DG", "EPOCH": "2025-12-04T12:00:30.087072", "MEAN_MOTION": 14.34680478, "ECCENTRICITY": 0.008354, "INCLINATION": 86.2003, "RA_OF_ASC_NODE": 5.0446, "ARG_OF_PERICENTER": 28.9801, "MEAN_ANOMALY": 331.5995, "EPHEMERIS_TYPE": 0, "CLASSIFICATION_TYPE": "U", "NORAD_CAT_ID": 34097, "ELEMENT_SET_NO": 999, "REV_AT_EPOCH": 87001, "BSTAR": 0.0028898, "MEAN_MOTION_DOT": 8.526e-05, "MEAN_MOTION_DDOT": 0}, "tle": {"line1": "1 34097U 97051DG  25338.50034823  .00008526  00000+0  28898-2 0  9998", "line2": "2 34097  86.2003   5.0446 0083540  28.9801 331.5995 14.34680478870017"}}, "geometry": {"type": "Point", "coordinates": [2.2528662799797323, -34.10373076883367]}}, {"type": "Feature", "properties": {"norad_id": 34145, "name": "IRIDIUM 33 DEB", "group": "iridium-33-debris", "lat": 25.62496024985337, "lon": -22.196452529862253, "alt_km": 752.0450925590221, "timestamp": "2025-12-04T23:34:06.106568+00:00", "meta": {"OBJECT_NAME": "IRIDIUM 33 DEB", "OBJECT_ID": "1997-051DY", "EPOCH": "2025-12-04T05:07:56.080128", "MEAN_MOTION": 14.42196317, "ECCENTRICITY": 0.005535, "INCLINATION": 86.211, "RA_OF_ASC_NODE": 336.324, "ARG_OF_PERICENTER": 120.9354, "MEAN_ANOMALY": 239.7303, "EPHEMERIS_TYPE": 0, "CLASSIFICATION_TYPE": "U", "NORAD_CAT_ID": 34145, "ELEMENT_SET_NO": 999, "REV_AT_EPOCH": 87515, "BSTAR": 0.0021467, "MEAN_MOTION_DOT": 7.221e-05, "MEAN_MOTION_DDOT": 0}, "tle": {"line1": "1 34145U 97051DY  25338.21384352  .00007221  00000+0  21467-2 0  9991", "line2": "2 34145  86.2110 336.3240 0055350 120.9354 239.7303 14.42196317875151"}}, "geometry": {"type": "Point", "coordinates": [-22.196452529862253, 25.62496024985337]}}, {"type": "Feature", "properties": {"norad_id": 34146, "name": "IRIDIUM 33 DEB", "group": "iridium-33-debris", "lat": -15.408333472883207, "lon": 174.25462609253614, "alt_km": 723.4263746383194, "timestamp": "2025-12-04T23:34:06.106578+00:00", "meta": {"OBJECT_NAME": "IRIDIUM 33 DEB", "OBJECT_ID": "1997-051DZ", "EPOCH": "2025-12-04T13:18:05.700096", "MEAN_MOTION": 14.48959771, "ECCENTRICITY": 0.0025021, "INCLINATION": 86.2833, "RA_OF_ASC_NODE": 353.417, "ARG_OF_PERICENTER": 250.9245, "MEAN_ANOMALY": 234.6299, "EPHEMERIS_TYPE": 0, "CLASSIFICATION_TYPE": "U", "NORAD_CAT_ID": 34146, "ELEMENT_SET_NO": 999, "REV_AT_EPOCH": 87988, "BSTAR": 0.0021466, "MEAN_MOTION_DOT": 8.185e-05, "MEAN_MOTION_DDOT": 0}, "tle": {"line1": "1 34146U 97051DZ  25338.55423264  .00008185  00000+0  21466-2 0  9994", "line2": "2 34146  86.2833 353.4170 0025021 250.9245 234.6299 14.48959771879880"}}, "geometry": {"type": "Point", "coordinates": [174.25462609253614, -15.408333472883207]}}, {"type": "Feature", "properties": {"norad_id": 34159, "name": "IRIDIUM 33 DEB", "group": "iridium-33-debris", "lat": -23.794474419082132, "lon": -126.83910583560562, "alt_km": 775.9929780748671, "timestamp": "2025-12-04T23:34:06.106588+00:00", "meta": {"OBJECT_NAME": "IRIDIUM 33 DEB", "OBJECT_ID": "1997-051EN", "EPOCH": "2025-12-04T15:56:37.730112", "MEAN_MOTION": 14.38463354, "ECCENTRICITY": 0.0026377, "INCLINATION": 86.3518, "RA_OF_ASC_NODE": 51.6842, "ARG_OF_PERICENTER": 316.2134, "MEAN_ANOMALY": 43.6972, "EPHEMERIS_TYPE": 0, "CLASSIFICATION_TYPE": "U", "NORAD_CAT_ID": 34159, "ELEMENT_SET_NO": 999, "REV_AT_EPOCH": 87843, "BSTAR": 0.00077286, "MEAN_MOTION_DOT": 2.387e-05, "MEAN_MOTION_DDOT": 0}, "tle": {"line1": "1 34159U 97051EN  25338.66432558  .00002387  00000+0  77286-3 0  9996", "line2": "2 34159  86.3518  51.6842 0026377 316.2134  43.6972 14.38463354878438"}}, "geometry": {"type": "Point", "coordinates": [-126.83910583560562, -23.794474419082132]}}, {"type": "Feature", "properties": {"norad_id": 34350, "name": "IRIDIUM 33 DEB", "group": "iridium-33-debris", "lat": 40.1165346759416, "lon": 9.275248917606994, "alt_km": 745.3932607785646, "timestamp": "2025-12-04T23:34:06.106598+00:00", "meta": {"OBJECT_NAME": "IRIDIUM 33 DEB", "OBJECT_ID": "1997-051ES", "EPOCH": "2025-12-04T01:54:53.906976", "MEAN_MOTION": 14.45357099, "ECCENTRICITY": 0.00219337, "INCLINATION": 86.3281, "RA_OF_ASC_NODE": 6.5649, "ARG_OF_PERICENTER": 162.4763, "MEAN_ANOMALY": 226.5026, "EPHEMERIS_TYPE": 0, "CLASSIFICATION_TYPE": "U", "NORAD_CAT_ID": 34350, "ELEMENT_SET_NO": 999, "REV_AT_EPOCH": 88168, "BSTAR": 0.00057236591, "MEAN_MOTION_DOT": 2.036e-05, "MEAN_MOTION_DDOT": 0}, "tle": {"line1": "1 34350U 97051ES  25338.07979059  .00002036  00000+0  57237-3 0  9991", "line2": "2 34350  86.3281   6.5649 0021933 162.4763 226.5026 14.45357099881683"}}, "geometry": {"type": "Point", "coordinates": [9.275248917606994, 40.1165346759416]}}, {"type": "Feature", "properties": {"norad_id": 34366, "name": "IRIDIUM 33 DEB", "group": "iridium-33-debris", "lat": 52.13242921394509, "lon": -131.99510321514714, "alt_km": 695.6197057493164, "timestamp": "2025-12-04T23:34:06.106609+00:00", "meta": {"OBJECT_NAME": "IRIDIUM 33 DEB", "OBJECT_ID": "1997-051FJ", "EPOCH": "2025-12-04T16:58:06.750048", "MEAN_MOTION": 14.53943221, "ECCENTRICITY": 0.0021835, "INCLINATION": 86.3708, "RA_OF_ASC_NODE": 52.8063, "ARG_OF_PERICENTER": 165.4652, "MEAN_ANOMALY": 323.8941, "EPHEMERIS_TYPE": 0, "CLASSIFICATION_TYPE": "U", "NORAD_CAT_ID": 34366, "ELEMENT_SET_NO": 999, "REV_AT_EPOCH": 88065, "BSTAR": 0.0028769, "MEAN_MOTION_DOT": 0.00012178, "MEAN_MOTION_DDOT": 0}, "tle": {"line1": "1 34366U 97051FJ  25338.70702257  .00012178  00000+0  28769-2 0  9997", "line2": "2 34366  86.3708  52.8063 0021835 165.4652 323.8941 14.53943221880659"}}, "geometry": {"type": "Point", "coordinates": [-131.99510321514714, 52.13242921394509]}}]}